PRN 18 NAVSTAR 35 (USA 96)
1 22877U 93068A   17032.50535236 -.00000014  00000-0  00000+0 0  9999
2 22877  54.1152 104.1036 0130223  68.9627 252.9309  2.00561791170504
PRN 13 NAVSTAR 43 (USA 132)
1 24876U 97035A   17032.95195658  .00000078  00000-0  00000+0 0  9996
2 24876  55.5846 232.4341 0038544 106.8463 253.6051  2.00561849143110
PRN 11 NAVSTAR 46 (USA 145)
1 25933U 99055A   17032.49676108 -.00000027  00000-0  00000+0 0  9993
2 25933  51.5386  83.5859 0164032  92.7054 228.0009  2.00560055126927
PRN 20 NAVSTAR 47 (USA 150)
1 26360U 00025A   17032.40810378  .00000038  00000-0  00000+0 0  9998
2 26360  53.0981 160.5548 0044198  88.5510 268.7001  2.00568157122617
PRN 28 NAVSTAR 48 (USA 151)
1 26407U 00040A   17032.31544358 -.00000051  00000-0  00000+0 0  9995
2 26407  56.6689 350.4454 0202506 269.5079 302.5930  2.00567810121284
PRN 14 NAVSTAR 49 (USA 154)
1 26605U 00071A   17032.35265600  .00000076  00000-0  00000+0 0  9999
2 26605  55.1557 230.2414 0088707 248.5282 257.9944  2.00569438118889
PRN 16 NAVSTAR 51 (USA 166)
1 27663U 03005A   17032.49003090 -.00000051  00000-0  00000+0 0  9996
2 27663  56.7395 350.1702 0090223  21.1090  76.8118  2.00567868102655
PRN 21 NAVSTAR 52 (USA 168)
1 27704U 03010A   17032.36314080 -.00000014  00000-0  00000+0 0  9997
2 27704  53.7786 103.8623 0240291 261.8347  65.5321  2.00554675101457
PRN 22 NAVSTAR 53 (USA 175)
1 28129U 03058A   17032.14928957  .00000041  00000-0  00000+0 0  9990
2 28129  52.9072 163.5217 0075920 256.5140 102.6139  2.00571184 96140
PRN 19 NAVSTAR 54 (USA 177)
1 28190U 04009A   17032.19842686 -.00000027  00000-0  00000+0 0  9999
2 28190  55.9294  51.3023 0099933  51.3423 347.6724  2.00566813 94323
PRN 23 NAVSTAR 55 (USA 178)
1 28361U 04023A   17032.30361414  .00000076  00000-0  00000+0 0  9996
2 28361  54.1368 225.4929 0113494 217.4227 173.5119  2.00547981 92418
PRN 02 NAVSTAR 56 (USA 180)
1 28474U 04045A   17032.34645309 -.00000013  00000-0  00000+0 0  9999
2 28474  54.1615 103.2784 0167588 244.1091 176.8089  2.00557343 89779
PRN 17 NAVSTAR 57 (USA 183)
1 28874U 05038A   17032.38576229 -.00000028  00000-0  00000+0 0  9990
2 28874  56.0898  48.5377 0118770 253.1222 299.9228  2.00575587 83171
PRN 31 NAVSTAR 58 (USA 190)
1 29486U 06042A   17032.41795760 -.00000004  00000-0  00000+0 0  9997
2 29486  55.4842 287.7198 0086144 341.5401 159.0881  2.00567261 75892
PRN 12 NAVSTAR 59 (USA 192)
1 29601U 06052A   17032.16864738 -.00000050  00000-0  00000+0 0  9992
2 29601  56.7118 349.1036 0062073  43.5882 316.9035  2.00573756 74803
PRN 15 NAVSTAR 60 (USA 196)
1 32260U 07047A   17032.98284838  .00000079  00000-0  00000+0 0  9999
2 32260  53.2638 221.9332 0089394  31.3254 329.2131  2.00555112 68203
PRN 29 NAVSTAR 61 (USA 199)
1 32384U 07062A   17032.46866646 -.00000027  00000-0  00000+0 0  9993
2 32384  56.1510  49.1070 0007131 330.6124 151.9062  2.00563144 66924
PRN 07 NAVSTAR 62 (USA 201)
1 32711U 08012A   17031.89136284 -.00000001  00000-0  00000+0 0  9999
2 32711  55.2110 287.1425 0102143 211.3476 148.1110  2.00571012 65098
PRN 05 NAVSTAR 64 (USA 206)
1 35752U 09043A   17032.23459764  .00000045  00000-0  00000+0 0  9999
2 35752  54.2401 165.0300 0047933  29.9473 243.1206  2.00562648 54689
PRN 25 NAVSTAR 65 (USA 213)
1 36585U 10022A   17032.47327556 -.00000052  00000-0  00000+0 0  9991
2 36585  56.0249 346.0045 0059261  41.4623 145.7898  2.00567958 48949
PRN 01 NAVSTAR 66 (USA 232)
1 37753U 11036A   17032.52849601 -.00000011  00000-0  00000+0 0  9996
2 37753  55.3717 106.1880 0060577  29.3451 286.7312  2.00561113 40628
PRN 24 NAVSTAR 67 (USA 239)
1 38833U 12053A   17032.08036723  .00000001  00000-0  00000+0 0  9998
2 38833  54.2396 284.1867 0053628  23.3743 336.9403  2.00559647 31693
PRN 27 NAVSTAR 68 (USA 242)
1 39166U 13023A   17032.43388303 -.00000030  00000-0  00000+0 0  9992
2 39166  55.7989  45.5943 0042364  12.9012 347.2470  2.00565443 27223
PRN 30 NAVSTAR 69 (USA 248)
1 39533U 14008A   17032.93561277 -.00000011  00000-0  00000+0 0  9991
2 39533  54.3943 289.4255 0024002 181.7951 178.2616  2.00557962 21604
PRN 06 NAVSTAR 70 (USA 251)
1 39741U 14026A   17032.21729850 -.00000009  00000-0  00000+0 0  9993
2 39741  55.3596 105.7198 0008341 277.6192  82.3470  2.00570878 19865
PRN 09 NAVSTAR 71 (USA 256)
1 40105U 14045A   17032.30900101  .00000078  00000-0  00000+0 0  9995
2 40105  54.6589 225.3270 0006867 103.5704 256.5224  2.00560339 18314
PRN 03 NAVSTAR 72 (USA 258)
1 40294U 14068A   17032.17429979  .00000047  00000-0  00000+0 0  9999
2 40294  54.9855 165.9070 0004139   0.8887 359.0850  2.00547413 16534
PRN 26 NAVSTAR 73 (USA 260)
1 40534U 15013A   17032.31599537 -.00000054  00000-0  00000+0 0  9990
2 40534  54.9841 345.2441 0016785 346.3276  13.6342  2.00566434 13609
PRN 08 NAVSTAR 74 (USA 262)
1 40730U 15033A   17032.97769594 -.00000031  00000-0  00000+0 0  9999
2 40730  55.3344  45.3053 0026436 305.9901  53.8034  2.00574394 11377
PRN 10 NAVSTAR 75 (USA 265)
1 41019U 15062A   17032.03071528  .00000047  00000-0  00000+0 0  9998
2 41019  54.9964 165.6954 0022405 199.1636 160.7253  2.00562976  9176
PRN 32 NAVSTAR 76 (USA 266)
1 41328U 16007A   17032.11552269  .00000077  00000-0  00000+0 0  9999
2 41328  54.9182 225.4849 0008221 215.0702 144.8927  2.00561380  7235
